NORAD_CAT_ID,OBJECT_NAME,OBJECT_TYPE,EPOCH,MEAN_MOTION,ECCENTRICITY,INCLINATION,RA_OF_ASC_NODE,ARG_OF_PERICENTER,MEAN_ANOMALY,BSTAR,MEAN_MOTION_DOT,MEAN_MOTION_DDOT,TLE_LINE0,TLE_LINE1,TLE_LINE2,SEMIMAJOR_AXIS,PERIOD,APOGEE,PERIGEE,DECAYED
54081.0,STARLINK-5165,PAYLOAD,2024-07-20 12:40:00,15.08834876,0.000174,53.2176,134.841,90.4206,269.6986,5.3915e-05,5.7e-06,0.0,0 STARLINK-5165,1 54081U 22136AG  24202.52778053  .00000570  00000-0  53915-4 0  9998,2 54081  53.2176 134.8410 0001740  90.4206 269.6986 15.08834876 97314,6917.896,95.438,540.965,538.557,0.0
54081.0,STARLINK-5165,PAYLOAD,2024-07-21 04:33:50,15.08854025,0.0001402,53.2174,131.867,96.4679,263.6473,0.00015732,2.218e-05,0.0,0 STARLINK-5165,1 54081U 22136AG  24203.19016924  .00002218  00000-0  15732-3 0  9999,2 54081  53.2174 131.8670 0001402  96.4679 263.6473 15.08854025 97416,6917.838,95.437,540.672,538.733,0.0
54081.0,STARLINK-5165,PAYLOAD,2024-07-22 02:49:15,15.08849085,0.0001481,53.2178,127.6999,83.834,276.2821,1.6621e-05,-2.3e-07,0.0,0 STARLINK-5165,1 54081U 22136AG  24204.11753802 -.00000023  00000-0  16621-4 0  9997,2 54081  53.2178 127.6999 0001481  83.8340 276.2821 15.08849085 97551,6917.853,95.437,540.742,538.693,0.0
54081.0,STARLINK-5165,PAYLOAD,2024-07-22 18:43:06,15.08842965,0.0001473,53.2177,124.7273,88.5835,271.5326,0.00015059,2.11e-05,0.0,0 STARLINK-5165,1 54081U 22136AG  24204.77993811  .00002110  00000-0  15059-3 0  9996,2 54081  53.2177 124.7273 0001473  88.5835 271.5326 15.08842965 97171,6917.871,95.437,540.755,538.717,0.0
54081.0,STARLINK-5165,PAYLOAD,2024-07-23 12:12:20,15.0884984,0.0001665,53.2155,121.4627,71.1538,288.9634,8.7578e-05,1.106e-05,0.0,0 STARLINK-5165,1 54081U 22136AG  24205.50857364  .00001106  00000-0  87578-4 0  9990,2 54081  53.2155 121.4627 0001665  71.1538 288.9634 15.08849840 97763,6917.85,95.437,540.867,538.563,0.0
54081.0,STARLINK-5165,PAYLOAD,2024-07-23 18:33:54,15.08831569,0.0002066,53.2167,120.2694,90.6651,269.4578,-0.00011338,-2.092e-05,0.0,0 STARLINK-5165,1 54081U 22136AG  24205.77354685 -.00002092  00000-0 -11338-3 0  9994,2 54081  53.2167 120.2694 0002066  90.6651 269.4578 15.08831569 97800,6917.906,95.438,541.2,538.342,0.0
54081.0,STARLINK-5165,PAYLOAD,2024-07-24 04:06:13,15.08827466,0.0001601,53.2176,118.4818,113.9136,246.2024,-7.3176e-05,-1.452e-05,0.0,0 STARLINK-5165,1 54081U 22136AG  24206.17099529 -.00001452  00000-0 -73176-4 0  9990,2 54081  53.2176 118.4818 0001601 113.9136 246.2024 15.08827466 97864,6917.919,95.438,540.891,538.676,0.0
54081.0,STARLINK-5165,PAYLOAD,2024-07-24 18:24:41,15.08844466,0.0001224,53.217,115.8125,70.4875,289.625,5.4559e-05,5.81e-06,0.0,0 STARLINK-5165,1 54081U 22136AG  24206.76714349  .00000581  00000-0  54559-4 0  9993,2 54081  53.2170 115.8125 0001224  70.4875 289.6250 15.08844466 97959,6917.867,95.437,540.578,538.885,0.0
54081.0,STARLINK-5165,PAYLOAD,2024-07-25 03:56:58,15.08864812,0.0001364,53.2171,114.0207,109.8586,250.2554,0.00013695,1.894e-05,0.0,0 STARLINK-5165,1 54081U 22136AG  24207.16456411  .00001894  00000-0  13695-3 0  9994,2 54081  53.2171 114.0207 0001364 109.8586 250.2554 15.08864812 98019,6917.805,95.436,540.613,538.726,0.0
54081.0,STARLINK-5165,PAYLOAD,2024-07-25 18:15:28,15.08831271,0.0002022,53.2177,111.3439,109.7532,250.3679,0.00024485,3.61e-05,0.0,0 STARLINK-5165,1 54081U 22136AG  24207.76074602  .00003610  00000-0  24485-3 0  9995,2 54081  53.2177 111.3439 0002022 109.7532 250.3679 15.08831271 98106,6917.907,95.438,541.171,538.373,0.0
54081.0,STARLINK-5165,PAYLOAD,2024-07-26 03:47:47,15.08831989,0.0001127,53.2172,109.5614,90.7051,269.407,0.00019142,2.759e-05,0.0,0 STARLINK-5165,1 54081U 22136AG  24208.15818905  .00002759  00000-0  19142-3 0  9998,2 54081  53.2172 109.5614 0001127  90.7051 269.4070 15.08831989 97689,6917.905,95.438,540.55,538.99,0.0
54081.0,STARLINK-5165,PAYLOAD,2024-07-26 10:09:20,15.08836567,0.000134,53.2185,108.378,93.0399,267.0746,0.00010737,1.421e-05,0.0,0 STARLINK-5165,1 54081U 22136AG  24208.42314935  .00001421  00000-0  10737-3 0  9998,2 54081  53.2185 108.3780 0001340  93.0399 267.0746 15.08836567 97728,6917.891,95.438,540.683,538.829,0.0
54081.0,STARLINK-5165,PAYLOAD,2024-07-27 22:43:12,15.08833705,0.0001186,53.2169,101.5321,66.1008,294.0108,5.8871e-05,6.49e-06,0.0,0 STARLINK-5165,1 54081U 22136AG  24209.94667089  .00000649  00000-0  58871-4 0  9990,2 54081  53.2169 101.5321 0001186  66.1008 294.0108 15.08833705 97950,6917.9,95.438,540.585,538.944,0.0
54081.0,STARLINK-5165,PAYLOAD,2024-07-28 20:58:33,15.08908274,0.0001312,53.2169,97.3713,70.7156,289.3978,-0.00096746,-0.00015681,0.0,0 STARLINK-5165,1 54081U 22136AG  24210.87399862 -.00015681  00000-0 -96746-3 0  9991,2 54081  53.2169  97.3713 0001312  70.7156 289.3978 15.08908274 98578,6917.672,95.433,540.444,538.629,0.0
54081.0,STARLINK-5165,PAYLOAD,2024-07-28 22:33:55,15.08923587,0.0001493,53.2159,97.0737,69.8081,290.3072,-0.001243,-0.00020061,0.0,0 STARLINK-5165,1 54081U 22136AG  24210.94022860 -.00020061  00000-0 -12430-2 0  9995,2 54081  53.2159  97.0737 0001493  69.8081 290.3072 15.08923587 98106,6917.625,95.432,540.523,538.457,0.0
54081.0,STARLINK-5165,PAYLOAD,2024-07-29 00:09:21,15.0883735,0.0001387,53.217,96.7772,90.5271,269.588,0.00024602,3.629e-05,0.0,0 STARLINK-5165,1 54081U 22136AG  24211.00650340  .00003629  00000-0  24602-3 0  9997,2 54081  53.2170  96.7772 0001387  90.5271 269.5880 15.08837350 98598,6917.888,95.438,540.713,538.794,0.0
54081.0,STARLINK-5165,PAYLOAD,2024-07-29 09:41:41,15.08837005,0.0001388,53.2175,94.9914,88.6357,271.4794,0.00018912,2.723e-05,0.0,0 STARLINK-5165,1 54081U 22136AG  24211.40394801  .00002723  00000-0  18912-3 0  9999,2 54081  53.2175  94.9914 0001388  88.6357 271.4794 15.08837005 98172,6917.89,95.438,540.715,538.794,0.0
54081.0,STARLINK-5165,PAYLOAD,2024-07-29 20:49:23,15.0883698,0.0001272,53.2159,92.9102,82.8007,277.313,0.00019557,2.826e-05,0.0,0 STARLINK-5165,1 54081U 22136AG  24211.86762920  .00002826  00000-0  19557-3 0  9990,2 54081  53.2159  92.9102 0001272  82.8007 277.3130 15.08836980 98722,6917.89,95.438,540.635,538.875,0.0
54081.0,STARLINK-5165,PAYLOAD,2024-07-29 22:24:46,15.08838649,0.0001233,53.2162,92.6117,94.2467,265.8666,0.00017099,2.434e-05,0.0,0 STARLINK-5165,1 54081U 22136AG  24211.93386829  .00002434  00000-0  17099-3 0  9992,2 54081  53.2162  92.6117 0001233  94.2467 265.8666 15.08838649 98251,6917.885,95.438,540.602,538.897,0.0
54081.0,STARLINK-5165,PAYLOAD,2024-07-30 09:32:27,15.08843884,0.0001311,53.2168,90.5318,88.4146,271.6996,0.00016633,2.361e-05,0.0,0 STARLINK-5165,1 54081U 22136AG  24212.39754554  .00002361  00000-0  16633-3 0  9999,2 54081  53.2168  90.5318 0001311  88.4146 271.6996 15.08843884 98329,6917.869,95.437,540.64,538.827,0.0
54081.0,STARLINK-5165,PAYLOAD,2024-07-30 22:15:32,15.08846759,0.0001417,53.2169,88.1536,87.4623,272.6531,0.00013004,1.783e-05,0.0,0 STARLINK-5165,1 54081U 22136AG  24212.92746434  .00001783  00000-0  13004-3 0  9992,2 54081  53.2169  88.1536 0001417  87.4623 272.6531 15.08846759 98400,6917.86,95.437,540.705,538.744,0.0
54081.0,STARLINK-5165,PAYLOAD,2024-07-31 22:06:21,15.0882045,0.0001214,53.2166,83.6929,84.6668,275.4462,0.00018003,2.577e-05,0.0,0 STARLINK-5165,1 54081U 22136AG  24213.92108076  .00002577  00000-0  18003-3 0  9993,2 54081  53.2166  83.6929 0001214  84.6668 275.4462 15.08820450 99030,6917.94,95.439,540.645,538.965,0.0
54081.0,STARLINK-5165,PAYLOAD,2024-08-01 21:57:06,15.08849385,0.0001338,53.2176,79.2325,80.1829,279.9314,0.00023302,3.423e-05,0.0,0 STARLINK-5165,1 54081U 22136AG  24214.91465708  .00003423  00000-0  23302-3 0  9990,2 54081  53.2176  79.2325 0001338  80.1829 279.9314 15.08849385 99188,6917.852,95.437,540.642,538.791,0.0
54081.0,STARLINK-5165,PAYLOAD,2024-08-02 07:29:25,15.08843982,0.000132,53.2171,77.4472,85.2299,274.8844,0.00016762,2.381e-05,0.0,0 STARLINK-5165,1 54081U 22136AG  24215.31210194  .00002381  00000-0  16762-3 0  9996,2 54081  53.2171  77.4472 0001320  85.2299 274.8844 15.08843982 99240,6917.868,95.437,540.646,538.82,0.0
54081.0,STARLINK-5165,PAYLOAD,2024-08-02 21:47:56,15.08822305,0.0001493,53.2183,74.7747,94.7665,265.3498,2.9913e-05,1.88e-06,0.0,0 STARLINK-5165,1 54081U 22136AG  24215.90828778  .00000188  00000-0  29913-4 0  9990,2 54081  53.2183  74.7747 0001493  94.7665 265.3498 15.08822305 99337,6917.934,95.439,540.832,538.767,0.0
54081.0,STARLINK-5165,PAYLOAD,2024-08-03 07:20:14,15.08834668,0.0001649,53.2182,72.9916,101.3444,258.7734,5.2309e-06,-2.05e-06,0.0,0 STARLINK-5165,1 54081U 22136AG  24216.30571792 -.00000205  00000-0  52309-5 0  9993,2 54081  53.2182  72.9916 0001649 101.3444 258.7734 15.08834668 99397,6917.897,95.438,540.902,538.621,0.0
54081.0,STARLINK-5165,PAYLOAD,2024-08-03 21:38:41,15.0885621,0.000156,53.2175,70.3142,103.2528,256.8638,0.00067448,0.00010467,0.0,0 STARLINK-5165,1 54081U 22136AG  24216.90187232  .00010467  00000-0  67448-3 0  9999,2 54081  53.2175  70.3142 0001560 103.2528 256.8638 15.08856210 99487,6917.831,95.437,540.775,538.617,0.0
54081.0,STARLINK-5165,PAYLOAD,2024-08-04 07:11:00,15.08861837,0.0001306,53.2159,68.5282,84.5235,275.5906,0.0008551,0.00013355,0.0,0 STARLINK-5165,1 54081U 22136AG  24217.29931175  .00013355  00000-0  85510-3 0  9994,2 54081  53.2159  68.5282 0001306  84.5235 275.5906 15.08861837 99068,6917.814,95.436,540.582,538.775,0.0
54081.0,STARLINK-5165,PAYLOAD,2024-08-04 21:29:28,15.08876145,0.0001432,53.2161,65.8525,81.216,278.8994,0.0029841,0.00047572,0.0,0 STARLINK-5165,1 54081U 22136AG  24217.89547085  .00047572  00000-0  29841-2 0  9995,2 54081  53.2161  65.8525 0001432  81.2160 278.8994 15.08876145 99636,6917.77,95.435,540.626,538.644,0.0
54081.0,STARLINK-5165,PAYLOAD,2024-08-05 07:01:47,15.08857612,0.000144,53.2159,64.0678,89.3865,270.7292,0.0011737,0.0001845,0.0,0 STARLINK-5165,1 54081U 22136AG  24218.29291143  .00018450  00000-0  11737-2 0  9999,2 54081  53.2159  64.0678 0001440  89.3865 270.7292 15.08857612 99699,6917.827,95.436,540.688,538.695,0.0
